{"fetched_at":"2026-07-07T18:29:31.841Z","source":"https://celestrak.org/NORAD/elements/gp.php?NAME=ICEYE&FORMAT=JSON","constellation":"iceye","records":[{"OBJECT_NAME":"ICEYE-X2","OBJECT_ID":"2018-099AU","EPOCH":"2026-07-07T12:17:56.499072","CLASSIFICATION_TYPE":"U","MEAN_MOTION":15.1798198,"ECCENTRICITY":0.000899,"INCLINATION":97.4342,"RA_OF_ASC_NODE":241.9977,"ARG_OF_PERICENTER":223.9905,"MEAN_ANOMALY":136.0614,"EPHEMERIS_TYPE":0,"NORAD_CAT_ID":43800,"ELEMENT_SET_NO":999,"REV_AT_EPOCH":41590,"BSTAR":0.00029285,"MEAN_MOTION_DOT":0.0000589,"MEAN_MOTION_DDOT":0},{"OBJECT_NAME":"ICEYE-X4","OBJECT_ID":"2019-038D","EPOCH":"2026-07-07T13:03:30.284928","CLASSIFICATION_TYPE":"U","MEAN_MOTION":15.29764626,"ECCENTRICITY":0.0012141,"INCLINATION":97.8753,"RA_OF_ASC_NODE":222.6584,"ARG_OF_PERICENTER":226.23,"MEAN_ANOMALY":133.7935,"EPHEMERIS_TYPE":0,"NORAD_CAT_ID":44390,"ELEMENT_SET_NO":999,"REV_AT_EPOCH":38491,"BSTAR":0.00026623,"MEAN_MOTION_DOT":0.00007608,"MEAN_MOTION_DDOT":0},{"OBJECT_NAME":"ICEYE-X7","OBJECT_ID":"2020-068L","EPOCH":"2026-07-07T12:34:06.419424","CLASSIFICATION_TYPE":"U","MEAN_MOTION":15.31983521,"ECCENTRICITY":0.000535,"INCLINATION":97.7503,"RA_OF_ASC_NODE":155.9809,"ARG_OF_PERICENTER":247.5094,"MEAN_ANOMALY":112.5581,"EPHEMERIS_TYPE":0,"NORAD_CAT_ID":46496,"ELEMENT_SET_NO":999,"REV_AT_EPOCH":31790,"BSTAR":0.00026665,"MEAN_MOTION_DOT":0.00008154,"MEAN_MOTION_DDOT":0},{"OBJECT_NAME":"ICEYE-X6","OBJECT_ID":"2020-068M","EPOCH":"2026-07-07T11:24:32.876064","CLASSIFICATION_TYPE":"U","MEAN_MOTION":15.0463329,"ECCENTRICITY":0.000781,"INCLINATION":98.0974,"RA_OF_ASC_NODE":183.1177,"ARG_OF_PERICENTER":32.107,"MEAN_ANOMALY":328.0629,"EPHEMERIS_TYPE":0,"NORAD_CAT_ID":46497,"ELEMENT_SET_NO":999,"REV_AT_EPOCH":31628,"BSTAR":0.00019532,"MEAN_MOTION_DOT":0.00002678,"MEAN_MOTION_DDOT":0},{"OBJECT_NAME":"ICEYE-X21","OBJECT_ID":"2023-001AS","EPOCH":"2026-06-24T05:11:18.420288","CLASSIFICATION_TYPE":"U","MEAN_MOTION":16.24069885,"ECCENTRICITY":0.00123774,"INCLINATION":97.3001,"RA_OF_ASC_NODE":262.6152,"ARG_OF_PERICENTER":285.9702,"MEAN_ANOMALY":74.0225,"EPHEMERIS_TYPE":0,"NORAD_CAT_ID":55049,"ELEMENT_SET_NO":999,"REV_AT_EPOCH":19475,"BSTAR":0.000602142,"MEAN_MOTION_DOT":0.01585954,"MEAN_MOTION_DDOT":0.000002396838},{"OBJECT_NAME":"ICEYE-X25","OBJECT_ID":"2023-084AH","EPOCH":"2026-07-07T13:37:38.974080","CLASSIFICATION_TYPE":"U","MEAN_MOTION":15.62291049,"ECCENTRICITY":0.000387,"INCLINATION":97.5904,"RA_OF_ASC_NODE":336.2504,"ARG_OF_PERICENTER":208.9805,"MEAN_ANOMALY":151.1238,"EPHEMERIS_TYPE":0,"NORAD_CAT_ID":56963,"ELEMENT_SET_NO":999,"REV_AT_EPOCH":17115,"BSTAR":0.00042605,"MEAN_MOTION_DOT":0.00037576,"MEAN_MOTION_DDOT":0},{"OBJECT_NAME":"ICEYE-X31","OBJECT_ID":"2023-174AJ","EPOCH":"2026-07-07T13:05:46.414176","CLASSIFICATION_TYPE":"U","MEAN_MOTION":15.35003783,"ECCENTRICITY":0.0001941,"INCLINATION":97.377,"RA_OF_ASC_NODE":264.2884,"ARG_OF_PERICENTER":210.7254,"MEAN_ANOMALY":149.3876,"EPHEMERIS_TYPE":0,"NORAD_CAT_ID":58288,"ELEMENT_SET_NO":999,"REV_AT_EPOCH":14787,"BSTAR":0.00034621,"MEAN_MOTION_DOT":0.00011681,"MEAN_MOTION_DDOT":0},{"OBJECT_NAME":"ICEYE-X34","OBJECT_ID":"2023-174AQ","EPOCH":"2026-07-07T05:28:58.606176","CLASSIFICATION_TYPE":"U","MEAN_MOTION":15.6938829,"ECCENTRICITY":0.0001647,"INCLINATION":97.3859,"RA_OF_ASC_NODE":280.4459,"ARG_OF_PERICENTER":179.9268,"MEAN_ANOMALY":180.1994,"EPHEMERIS_TYPE":0,"NORAD_CAT_ID":58294,"ELEMENT_SET_NO":999,"REV_AT_EPOCH":14888,"BSTAR":0.0010043,"MEAN_MOTION_DOT":0.00118865,"MEAN_MOTION_DDOT":0},{"OBJECT_NAME":"ICEYE-X35","OBJECT_ID":"2023-174AY","EPOCH":"2026-07-07T12:46:21.491616","CLASSIFICATION_TYPE":"U","MEAN_MOTION":15.54556646,"ECCENTRICITY":0.0008418,"INCLINATION":97.3781,"RA_OF_ASC_NODE":273.693,"ARG_OF_PERICENTER":131.6824,"MEAN_ANOMALY":228.5152,"EPHEMERIS_TYPE":0,"NORAD_CAT_ID":58302,"ELEMENT_SET_NO":999,"REV_AT_EPOCH":14850,"BSTAR":0.00059043,"MEAN_MOTION_DOT":0.00039035,"MEAN_MOTION_DDOT":0},{"OBJECT_NAME":"ICEYE-X38","OBJECT_ID":"2024-043C","EPOCH":"2026-07-07T11:42:38.863584","CLASSIFICATION_TYPE":"U","MEAN_MOTION":15.13045909,"ECCENTRICITY":0.0002954,"INCLINATION":97.8427,"RA_OF_ASC_NODE":332.798,"ARG_OF_PERICENTER":41.3522,"MEAN_ANOMALY":318.7931,"EPHEMERIS_TYPE":0,"NORAD_CAT_ID":59100,"ELEMENT_SET_NO":999,"REV_AT_EPOCH":11474,"BSTAR":0.00021082,"MEAN_MOTION_DOT":0.00003657,"MEAN_MOTION_DDOT":0},{"OBJECT_NAME":"ICEYE-X37","OBJECT_ID":"2024-043E","EPOCH":"2026-07-07T02:39:48.714336","CLASSIFICATION_TYPE":"U","MEAN_MOTION":15.0626024,"ECCENTRICITY":0.0013725,"INCLINATION":97.834,"RA_OF_ASC_NODE":325.4288,"ARG_OF_PERICENTER":304.6919,"MEAN_ANOMALY":55.3013,"EPHEMERIS_TYPE":0,"NORAD_CAT_ID":59102,"ELEMENT_SET_NO":999,"REV_AT_EPOCH":12808,"BSTAR":0.00019284,"MEAN_MOTION_DOT":0.0000277,"MEAN_MOTION_DDOT":0},{"OBJECT_NAME":"ICEYE-X36","OBJECT_ID":"2024-043F","EPOCH":"2026-07-07T05:40:06.185280","CLASSIFICATION_TYPE":"U","MEAN_MOTION":15.07195888,"ECCENTRICITY":0.0004543,"INCLINATION":97.8394,"RA_OF_ASC_NODE":326.6685,"ARG_OF_PERICENTER":244.4219,"MEAN_ANOMALY":115.6539,"EPHEMERIS_TYPE":0,"NORAD_CAT_ID":59103,"ELEMENT_SET_NO":999,"REV_AT_EPOCH":12816,"BSTAR":0.0001716,"MEAN_MOTION_DOT":0.00002517,"MEAN_MOTION_DDOT":0},{"OBJECT_NAME":"ICEYE-X43","OBJECT_ID":"2024-149BZ","EPOCH":"2026-07-06T17:04:51.127968","CLASSIFICATION_TYPE":"U","MEAN_MOTION":14.99764054,"ECCENTRICITY":0.0007183,"INCLINATION":97.6814,"RA_OF_ASC_NODE":264.4145,"ARG_OF_PERICENTER":23.252,"MEAN_ANOMALY":336.9027,"EPHEMERIS_TYPE":0,"NORAD_CAT_ID":60539,"ELEMENT_SET_NO":999,"REV_AT_EPOCH":10304,"BSTAR":0.00022072,"MEAN_MOTION_DOT":0.0000267,"MEAN_MOTION_DDOT":0},{"OBJECT_NAME":"ICEYE-X39","OBJECT_ID":"2024-149CG","EPOCH":"2026-07-06T16:33:18.711360","CLASSIFICATION_TYPE":"U","MEAN_MOTION":15.00030277,"ECCENTRICITY":0.0006944,"INCLINATION":97.6763,"RA_OF_ASC_NODE":264.4489,"ARG_OF_PERICENTER":69.0679,"MEAN_ANOMALY":291.1287,"EPHEMERIS_TYPE":0,"NORAD_CAT_ID":60546,"ELEMENT_SET_NO":999,"REV_AT_EPOCH":10304,"BSTAR":0.00030278,"MEAN_MOTION_DOT":0.00003711,"MEAN_MOTION_DDOT":0},{"OBJECT_NAME":"ICEYE-X33","OBJECT_ID":"2024-149CJ","EPOCH":"2026-07-07T04:04:19.734240","CLASSIFICATION_TYPE":"U","MEAN_MOTION":15.00919857,"ECCENTRICITY":0.0001937,"INCLINATION":97.7332,"RA_OF_ASC_NODE":267.2075,"ARG_OF_PERICENTER":76.3129,"MEAN_ANOMALY":283.831,"EPHEMERIS_TYPE":0,"NORAD_CAT_ID":60548,"ELEMENT_SET_NO":999,"REV_AT_EPOCH":10320,"BSTAR":0.00028225,"MEAN_MOTION_DOT":0.00003535,"MEAN_MOTION_DDOT":0}]}
