ICEYE-X2                
1 43800U 18099AU  26188.51245948  .00005890  00000+0  29285-3 0  9995
2 43800  97.4342 241.9977 0008990 223.9905 136.0614 15.17981980415900
ICEYE-X4                
1 44390U 19038D   26188.54410052  .00007608  00000+0  26623-3 0  9999
2 44390  97.8753 222.6584 0012141 226.2300 133.7935 15.29764626384918
ICEYE-X7                
1 46496U 20068L   26188.52368541  .00008154  00000+0  26665-3 0  9999
2 46496  97.7503 155.9809 0005350 247.5094 112.5581 15.31983521317904
ICEYE-X6                
1 46497U 20068M   26188.47538051  .00002678  00000+0  19532-3 0  9999
2 46497  98.0974 183.1177 0007810  32.1070 328.0629 15.04633290316289
ICEYE-X21               
1 55049U 23001AS  26175.21618542  .01585954  23968-5  60214-3 0  9995
2 55049  97.3001 262.6152 0012377 285.9702  74.0225 16.24069885194757
ICEYE-X25               
1 56963U 23084AH  26188.56781220  .00037576  00000+0  42605-3 0  9999
2 56963  97.5904 336.2504 0003870 208.9805 151.1238 15.62291049171153
ICEYE-X31               
1 58288U 23174AJ  26188.54567609  .00011681  00000+0  34621-3 0  9990
2 58288  97.3770 264.2884 0001941 210.7254 149.3876 15.35003783147876
ICEYE-X34               
1 58294U 23174AQ  26188.22845609  .00118865  00000+0  10043-2 0  9994
2 58294  97.3859 280.4459 0001647 179.9268 180.1994 15.69388290148885
ICEYE-X35               
1 58302U 23174AY  26188.53219319  .00039035  00000+0  59043-3 0  9996
2 58302  97.3781 273.6930 0008418 131.6824 228.5152 15.54556646148501
ICEYE-X38               
1 59100U 24043C   26188.48794981  .00003657  00000+0  21082-3 0  9999
2 59100  97.8427 332.7980 0002954  41.3522 318.7931 15.13045909114749
ICEYE-X37               
1 59102U 24043E   26188.11098049  .00002770  00000+0  19284-3 0  9999
2 59102  97.8340 325.4288 0013725 304.6919  55.3013 15.06260240128084
ICEYE-X36               
1 59103U 24043F   26188.23618270  .00002517  00000+0  17160-3 0  9997
2 59103  97.8394 326.6685 0004543 244.4219 115.6539 15.07195888128168
ICEYE-X43               
1 60539U 24149BZ  26187.71170287  .00002670  00000+0  22072-3 0  9990
2 60539  97.6814 264.4145 0007183  23.2520 336.9027 14.99764054103046
ICEYE-X39               
1 60546U 24149CG  26187.68979990  .00003711  00000+0  30278-3 0  9996
2 60546  97.6763 264.4489 0006944  69.0679 291.1287 15.00030277103041
ICEYE-X33               
1 60548U 24149CJ  26188.16967285  .00003535  00000+0  28225-3 0  9999
2 60548  97.7332 267.2075 0001937  76.3129 283.8310 15.00919857103209
